{
  "type": "FeatureCollection",
  "features": [
    {
      "type": "Feature",
      "properties": {
        "norad_id": 37836,
        "name": "EUTELSAT 16A",
        "group": "eutelsat",
        "lat": 0.006030804690636607,
        "lon": -0.42782605832510046,
        "alt_km": 35790.01137638944,
        "timestamp": "2025-12-08T17:43:04.566412+00:00",
        "meta_object_name": "EUTELSAT 16A",
        "meta_object_id": "2011-057A",
        "meta_epoch": "2025-12-08T06:49:51.491136",
        "meta_mean_motion": 1.00270549,
        "meta_eccentricity": 0.00059204,
        "meta_inclination": 0.0581,
        "meta_ra_of_asc_node": 359.0024,
        "meta_arg_of_pericenter": 262.2227,
        "meta_mean_anomaly": 294.5345,
        "meta_ephemeris_type": 0,
        "meta_classification_type": "U",
        "meta_norad_cat_id": 37836,
        "meta_element_set_no": 999,
        "meta_rev_at_epoch": 541,
        "meta_bstar": 0,
        "meta_mean_motion_dot": 1.06e-06,
        "meta_mean_motion_ddot": 0,
        "tle_line1": "1 37836U 11057A   25342.28462374  .00000106  00000+0  00000+0 0  9998",
        "tle_line2": "2 37836   0.0581 359.0024 0005920 262.2227 294.5345  1.00270549  5415"
      },
      "geometry": {
        "type": "Point",
        "coordinates": [
          -0.42782605832510046,
          0.006030804690636607
        ]
      }
    },
    {
      "type": "Feature",
      "properties": {
        "norad_id": 38992,
        "name": "EUTELSAT 21B",
        "group": "eutelsat",
        "lat": 0.018263120719614296,
        "lon": 5.137755692053661,
        "alt_km": 35788.60519612799,
        "timestamp": "2025-12-08T17:43:04.566425+00:00",
        "meta_object_name": "EUTELSAT 21B",
        "meta_object_id": "2012-062B",
        "meta_epoch": "2025-12-08T05:08:46.173120",
        "meta_mean_motion": 1.00270478,
        "meta_eccentricity": 0.00032357,
        "meta_inclination": 0.0663,
        "meta_ra_of_asc_node": 356.0407,
        "meta_arg_of_pericenter": 269.8023,
        "meta_mean_anomaly": 270.1719,
        "meta_ephemeris_type": 0,
        "meta_classification_type": "U",
        "meta_norad_cat_id": 38992,
        "meta_element_set_no": 999,
        "meta_rev_at_epoch": 4791,
        "meta_bstar": 0,
        "meta_mean_motion_dot": 1.32e-06,
        "meta_mean_motion_ddot": 0,
        "tle_line1": "1 38992U 12062B   25342.21442330  .00000132  00000+0  00000+0 0  9991",
        "tle_line2": "2 38992   0.0663 356.0407 0003235 269.8023 270.1719  1.00270478 47913"
      },
      "geometry": {
        "type": "Point",
        "coordinates": [
          5.137755692053661,
          0.018263120719614296
        ]
      }
    },
    {
      "type": "Feature",
      "properties": {
        "norad_id": 39020,
        "name": "EUTELSAT 70B",
        "group": "eutelsat",
        "lat": 0.06254845419602072,
        "lon": 54.02847949676202,
        "alt_km": 35803.81615303601,
        "timestamp": "2025-12-08T17:43:04.566438+00:00",
        "meta_object_name": "EUTELSAT 70B",
        "meta_object_id": "2012-069A",
        "meta_epoch": "2025-12-08T03:40:02.172288",
        "meta_mean_motion": 1.00272048,
        "meta_eccentricity": 0.0004298,
        "meta_inclination": 0.0651,
        "meta_ra_of_asc_node": 12.6114,
        "meta_arg_of_pericenter": 232.8262,
        "meta_mean_anomaly": 317.2477,
        "meta_ephemeris_type": 0,
        "meta_classification_type": "U",
        "meta_norad_cat_id": 39020,
        "meta_element_set_no": 999,
        "meta_rev_at_epoch": 4759,
        "meta_bstar": 0,
        "meta_mean_motion_dot": -4.1e-07,
        "meta_mean_motion_ddot": 0,
        "tle_line1": "1 39020U 12069A   25342.15280292 -.00000041  00000+0  00000+0 0  9991",
        "tle_line2": "2 39020   0.0651  12.6114 0004298 232.8262 317.2477  1.00272048 47591"
      },
      "geometry": {
        "type": "Point",
        "coordinates": [
          54.02847949676202,
          0.06254845419602072
        ]
      }
    },
    {
      "type": "Feature",
      "properties": {
        "norad_id": 39122,
        "name": "EUTELSAT 117 WEST A",
        "group": "eutelsat",
        "lat": -0.03191066543810014,
        "lon": -133.3159378909048,
        "alt_km": 35775.31384710591,
        "timestamp": "2025-12-08T17:43:04.566451+00:00",
        "meta_object_name": "EUTELSAT 117 WEST A",
        "meta_object_id": "2013-012A",
        "meta_epoch": "2025-12-08T05:51:36.789120",
        "meta_mean_motion": 1.00270355,
        "meta_eccentricity": 0.00031196,
        "meta_inclination": 0.013,
        "meta_ra_of_asc_node": 339.7183,
        "meta_arg_of_pericenter": 279.3607,
        "meta_mean_anomaly": 149.2785,
        "meta_ephemeris_type": 0,
        "meta_classification_type": "U",
        "meta_norad_cat_id": 39122,
        "meta_element_set_no": 999,
        "meta_rev_at_epoch": 4651,
        "meta_bstar": 0,
        "meta_mean_motion_dot": -1e-07,
        "meta_mean_motion_ddot": 0,
        "tle_line1": "1 39122U 13012A   25342.24417580 -.00000010  00000+0  00000+0 0  9991",
        "tle_line2": "2 39122   0.0130 339.7183 0003119 279.3607 149.2785  1.00270355 46510"
      },
      "geometry": {
        "type": "Point",
        "coordinates": [
          -133.3159378909048,
          -0.03191066543810014
        ]
      }
    },
    {
      "type": "Feature",
      "properties": {
        "norad_id": 39163,
        "name": "EUTELSAT 7B",
        "group": "eutelsat",
        "lat": -0.023565553290207528,
        "lon": -9.477694551787053,
        "alt_km": 35771.054091744234,
        "timestamp": "2025-12-08T17:43:04.566463+00:00",
        "meta_object_name": "EUTELSAT 7B",
        "meta_object_id": "2013-022A",
        "meta_epoch": "2025-12-08T05:04:39.067392",
        "meta_mean_motion": 1.00271135,
        "meta_eccentricity": 0.00045284,
        "meta_inclination": 0.0699,
        "meta_ra_of_asc_node": 11.6404,
        "meta_arg_of_pericenter": 301.859,
        "meta_mean_anomaly": 206.8716,
        "meta_ephemeris_type": 0,
        "meta_classification_type": "U",
        "meta_norad_cat_id": 39163,
        "meta_element_set_no": 999,
        "meta_rev_at_epoch": 4604,
        "meta_bstar": 0,
        "meta_mean_motion_dot": 5e-07,
        "meta_mean_motion_ddot": 0,
        "tle_line1": "1 39163U 13022A   25342.21156328  .00000050  00000+0  00000+0 0  9997",
        "tle_line2": "2 39163   0.0699  11.6404 0004528 301.8590 206.8716  1.00271135 46043"
      },
      "geometry": {
        "type": "Point",
        "coordinates": [
          -9.477694551787053,
          -0.023565553290207528
        ]
      }
    },
    {
      "type": "Feature",
      "properties": {
        "norad_id": 39612,
        "name": "EXPRESS-AT1",
        "group": "eutelsat",
        "lat": 0.03256266854474336,
        "lon": 39.500880391330455,
        "alt_km": 35787.10352787797,
        "timestamp": "2025-12-08T17:43:04.566507+00:00",
        "meta_object_name": "EXPRESS-AT1",
        "meta_object_id": "2014-010A",
        "meta_epoch": "2025-12-08T03:35:55.065696",
        "meta_mean_motion": 1.00271876,
        "meta_eccentricity": 3.625e-05,
        "meta_inclination": 0.0163,
        "meta_ra_of_asc_node": 340.3658,
        "meta_arg_of_pericenter": 195.6307,
        "meta_mean_anomaly": 11.1418,
        "meta_ephemeris_type": 0,
        "meta_classification_type": "U",
        "meta_norad_cat_id": 39612,
        "meta_element_set_no": 999,
        "meta_rev_at_epoch": 4290,
        "meta_bstar": 0,
        "meta_mean_motion_dot": 0,
        "meta_mean_motion_ddot": 0,
        "tle_line1": "1 39612U 14010A   25342.14994289  .00000000  00000+0  00000+0 0  9997",
        "tle_line2": "2 39612   0.0163 340.3658 0000362 195.6307  11.1418  1.00271876 42907"
      },
      "geometry": {
        "type": "Point",
        "coordinates": [
          39.500880391330455,
          0.03256266854474336
        ]
      }
    },
    {
      "type": "Feature",
      "properties": {
        "norad_id": 39613,
        "name": "EXPRESS-AT2",
        "group": "eutelsat",
        "lat": 0.00971861666166864,
        "lon": 123.35942125232795,
        "alt_km": 35792.0361362077,
        "timestamp": "2025-12-08T17:43:04.566530+00:00",
        "meta_object_name": "EXPRESS-AT2",
        "meta_object_id": "2014-010B",
        "meta_epoch": "2025-12-08T07:25:12.778752",
        "meta_mean_motion": 1.00272601,
        "meta_eccentricity": 0.00015629,
        "meta_inclination": 0.0167,
        "meta_ra_of_asc_node": 306.0443,
        "meta_arg_of_pericenter": 335.6983,
        "meta_mean_anomaly": 46.7381,
        "meta_ephemeris_type": 0,
        "meta_classification_type": "U",
        "meta_norad_cat_id": 39613,
        "meta_element_set_no": 999,
        "meta_rev_at_epoch": 4258,
        "meta_bstar": 0,
        "meta_mean_motion_dot": -2.78e-06,
        "meta_mean_motion_ddot": 0,
        "tle_line1": "1 39613U 14010B   25342.30917568 -.00000278  00000+0  00000+0 0  9999",
        "tle_line2": "2 39613   0.0167 306.0443 0001562 335.6983  46.7381  1.00272601 42586"
      },
      "geometry": {
        "type": "Point",
        "coordinates": [
          123.35942125232795,
          0.00971861666166864
        ]
      }
    }
  ]
}